ORBCOMM FM06            
1 25118U 97084G   26116.51089899  .00001465  00000+0  43467-3 0  9992
2 25118  45.0142 301.4592 0000560  60.7245 326.2716 14.47430712486901
ORBCOMM FM04            
1 25159U 98007C   26116.48547808  .00001079  00000+0  41576-3 0  9998
2 25159 107.9614  63.0253 0039266  55.2632 305.2197 14.35632487469177
ORBCOMM FM19            
1 25415U 98046C   26115.77195483  .00000751  00000+0  28462-3 0  9990
2 25415  44.9929 132.6881 0002450 359.5684 169.8896 14.39387743449223
ORBCOMM FM20            
1 25416U 98046D   26116.46449742  .00000633  00000+0  25395-3 0  9999
2 25416  44.9926 136.7536 0001794 283.0258  77.0390 14.37986266449346
ORBCOMM FM27            
1 25481U 98053G   26116.53830233  .00000933  00000+0  34516-3 0  9994
2 25481  45.0048 220.6485 0001428 232.4441 127.6278 14.39041320442791
ORBCOMM FM32            
1 25982U 99065C   26116.22179633  .00000835  00000+0  32631-3 0  9997
2 25982  45.0160  59.1947 0004293 165.2444 194.8530 14.37053768379613
ORBCOMM FM109           
1 40086U 14040A   26116.32069117  .00000487  00000+0  13949-3 0  9999
2 40086  47.0045 336.6971 0001788 331.5237  28.5551 14.58789110626771
ORBCOMM FM114           
1 41179U 15081A   26116.33831126  .00000528  00000+0  14803-3 0  9993
2 41179  47.0045 247.1278 0002535 304.8976  55.1671 14.58799280550184
ORBCOMM FM110           
1 41182U 15081D   26116.39559255  .00000704  00000+0  18544-3 0  9995
2 41182  47.0017 246.3126 0003534 204.9373 155.1342 14.58820406550069
ORBCOMM FM118           
1 41183U 15081E   26116.36179799  .00000702  00000+0  18497-3 0  9999
2 41183  47.0040 246.7979 0003133 170.5569 189.5376 14.58817992550161
ORBCOMM FM112           
1 41184U 15081F   26116.50169612  .00000524  00000+0  14731-3 0  9998
2 41184  46.9975 154.6148 0002689 303.8667  56.1963 14.58814463551406
ORBCOMM FM113           
1 41185U 15081G   26116.47916365  .00000410  00000+0  12312-3 0  9997
2 41185  46.9992 155.0991 0002199 306.5518  53.5165 14.58800232551389
ORBCOMM FM108           
1 41187U 15081J   26116.23623619  .00000656  00000+0  17528-3 0  9996
2 41187  47.0051  67.8023 0003308 312.3352  47.7254 14.58790667552496
ORBCOMM FM117           
1 41188U 15081K   26116.27015480  .00000510  00000+0  14428-3 0  9997
2 41188  47.0019  66.2919 0003719 318.4563  41.6040 14.58789057552548
ORBCOMM FM116           
1 41189U 15081L   26116.52498992  .00000527  00000+0  14779-3 0  9996
2 41189  47.0010 154.8787 0002126 220.4641 139.6087 14.58811344551393
