[{"OBJECT_NAME":"ORBCOMM FM06","OBJECT_ID":"1997-084G","EPOCH":"2026-04-26T12:15:41.672736","MEAN_MOTION":14.47430712,"ECCENTRICITY":5.6e-5,"INCLINATION":45.0142,"RA_OF_ASC_NODE":301.4592,"ARG_OF_PERICENTER":60.7245,"MEAN_ANOMALY":326.2716,"EPHEMERIS_TYPE":0,"CLASSIFICATION_TYPE":"U","NORAD_CAT_ID":25118,"ELEMENT_SET_NO":999,"REV_AT_EPOCH":48690,"BSTAR":0.00043467,"MEAN_MOTION_DOT":1.465e-5,"MEAN_MOTION_DDOT":0},{"OBJECT_NAME":"ORBCOMM FM04","OBJECT_ID":"1998-007C","EPOCH":"2026-04-26T11:39:05.306112","MEAN_MOTION":14.35632487,"ECCENTRICITY":0.0039266,"INCLINATION":107.9614,"RA_OF_ASC_NODE":63.0253,"ARG_OF_PERICENTER":55.2632,"MEAN_ANOMALY":305.2197,"EPHEMERIS_TYPE":0,"CLASSIFICATION_TYPE":"U","NORAD_CAT_ID":25159,"ELEMENT_SET_NO":999,"REV_AT_EPOCH":46917,"BSTAR":0.00041576,"MEAN_MOTION_DOT":1.079e-5,"MEAN_MOTION_DDOT":0},{"OBJECT_NAME":"ORBCOMM FM19","OBJECT_ID":"1998-046C","EPOCH":"2026-04-25T18:31:36.897312","MEAN_MOTION":14.39387743,"ECCENTRICITY":0.00024501,"INCLINATION":44.9929,"RA_OF_ASC_NODE":132.6881,"ARG_OF_PERICENTER":359.5684,"MEAN_ANOMALY":169.8896,"EPHEMERIS_TYPE":0,"CLASSIFICATION_TYPE":"U","NORAD_CAT_ID":25415,"ELEMENT_SET_NO":999,"REV_AT_EPOCH":44922,"BSTAR":0.00028462001,"MEAN_MOTION_DOT":7.51e-6,"MEAN_MOTION_DDOT":0},{"OBJECT_NAME":"ORBCOMM FM20","OBJECT_ID":"1998-046D","EPOCH":"2026-04-26T11:08:52.577088","MEAN_MOTION":14.37986266,"ECCENTRICITY":0.0001794,"INCLINATION":44.9926,"RA_OF_ASC_NODE":136.7536,"ARG_OF_PERICENTER":283.0258,"MEAN_ANOMALY":77.039,"EPHEMERIS_TYPE":0,"CLASSIFICATION_TYPE":"U","NORAD_CAT_ID":25416,"ELEMENT_SET_NO":999,"REV_AT_EPOCH":44934,"BSTAR":0.00025395,"MEAN_MOTION_DOT":6.33e-6,"MEAN_MOTION_DDOT":0},{"OBJECT_NAME":"ORBCOMM FM27","OBJECT_ID":"1998-053G","EPOCH":"2026-04-26T12:55:09.321312","MEAN_MOTION":14.3904132,"ECCENTRICITY":0.0001428,"INCLINATION":45.0048,"RA_OF_ASC_NODE":220.6485,"ARG_OF_PERICENTER":232.4441,"MEAN_ANOMALY":127.6278,"EPHEMERIS_TYPE":0,"CLASSIFICATION_TYPE":"U","NORAD_CAT_ID":25481,"ELEMENT_SET_NO":999,"REV_AT_EPOCH":44279,"BSTAR":0.00034516,"MEAN_MOTION_DOT":9.33e-6,"MEAN_MOTION_DDOT":0},{"OBJECT_NAME":"ORBCOMM FM32","OBJECT_ID":"1999-065C","EPOCH":"2026-04-26T05:19:23.202912","MEAN_MOTION":14.37053768,"ECCENTRICITY":0.0004293,"INCLINATION":45.016,"RA_OF_ASC_NODE":59.1947,"ARG_OF_PERICENTER":165.2444,"MEAN_ANOMALY":194.853,"EPHEMERIS_TYPE":0,"CLASSIFICATION_TYPE":"U","NORAD_CAT_ID":25982,"ELEMENT_SET_NO":999,"REV_AT_EPOCH":37961,"BSTAR":0.00032631,"MEAN_MOTION_DOT":8.35e-6,"MEAN_MOTION_DDOT":0},{"OBJECT_NAME":"ORBCOMM FM109","OBJECT_ID":"2014-040A","EPOCH":"2026-04-26T07:41:47.717088","MEAN_MOTION":14.5878911,"ECCENTRICITY":0.0001788,"INCLINATION":47.0045,"RA_OF_ASC_NODE":336.6971,"ARG_OF_PERICENTER":331.5237,"MEAN_ANOMALY":28.5551,"EPHEMERIS_TYPE":0,"CLASSIFICATION_TYPE":"U","NORAD_CAT_ID":40086,"ELEMENT_SET_NO":999,"REV_AT_EPOCH":62677,"BSTAR":0.00013949,"MEAN_MOTION_DOT":4.87e-6,"MEAN_MOTION_DDOT":0},{"OBJECT_NAME":"ORBCOMM FM114","OBJECT_ID":"2015-081A","EPOCH":"2026-04-26T08:07:10.092864","MEAN_MOTION":14.5879928,"ECCENTRICITY":0.0002535,"INCLINATION":47.0045,"RA_OF_ASC_NODE":247.1278,"ARG_OF_PERICENTER":304.8976,"MEAN_ANOMALY":55.1671,"EPHEMERIS_TYPE":0,"CLASSIFICATION_TYPE":"U","NORAD_CAT_ID":41179,"ELEMENT_SET_NO":999,"REV_AT_EPOCH":55018,"BSTAR":0.00014803,"MEAN_MOTION_DOT":5.28e-6,"MEAN_MOTION_DDOT":0},{"OBJECT_NAME":"ORBCOMM FM110","OBJECT_ID":"2015-081D","EPOCH":"2026-04-26T09:29:39.196320","MEAN_MOTION":14.58820406,"ECCENTRICITY":0.0003534,"INCLINATION":47.0017,"RA_OF_ASC_NODE":246.3126,"ARG_OF_PERICENTER":204.9373,"MEAN_ANOMALY":155.1342,"EPHEMERIS_TYPE":0,"CLASSIFICATION_TYPE":"U","NORAD_CAT_ID":41182,"ELEMENT_SET_NO":999,"REV_AT_EPOCH":55006,"BSTAR":0.00018544,"MEAN_MOTION_DOT":7.04e-6,"MEAN_MOTION_DDOT":0},{"OBJECT_NAME":"ORBCOMM FM118","OBJECT_ID":"2015-081E","EPOCH":"2026-04-26T08:40:59.346336","MEAN_MOTION":14.58817992,"ECCENTRICITY":0.0003133,"INCLINATION":47.004,"RA_OF_ASC_NODE":246.7979,"ARG_OF_PERICENTER":170.5569,"MEAN_ANOMALY":189.5376,"EPHEMERIS_TYPE":0,"CLASSIFICATION_TYPE":"U","NORAD_CAT_ID":41183,"ELEMENT_SET_NO":999,"REV_AT_EPOCH":55016,"BSTAR":0.00018497,"MEAN_MOTION_DOT":7.02e-6,"MEAN_MOTION_DDOT":0},{"OBJECT_NAME":"ORBCOMM FM112","OBJECT_ID":"2015-081F","EPOCH":"2026-04-26T12:02:26.544768","MEAN_MOTION":14.58814463,"ECCENTRICITY":0.0002689,"INCLINATION":46.9975,"RA_OF_ASC_NODE":154.6148,"ARG_OF_PERICENTER":303.8667,"MEAN_ANOMALY":56.1963,"EPHEMERIS_TYPE":0,"CLASSIFICATION_TYPE":"U","NORAD_CAT_ID":41184,"ELEMENT_SET_NO":999,"REV_AT_EPOCH":55140,"BSTAR":0.00014731,"MEAN_MOTION_DOT":5.24e-6,"MEAN_MOTION_DDOT":0},{"OBJECT_NAME":"ORBCOMM FM113","OBJECT_ID":"2015-081G","EPOCH":"2026-04-26T11:29:59.739360","MEAN_MOTION":14.58800232,"ECCENTRICITY":0.0002199,"INCLINATION":46.9992,"RA_OF_ASC_NODE":155.0991,"ARG_OF_PERICENTER":306.5518,"MEAN_ANOMALY":53.5165,"EPHEMERIS_TYPE":0,"CLASSIFICATION_TYPE":"U","NORAD_CAT_ID":41185,"ELEMENT_SET_NO":999,"REV_AT_EPOCH":55138,"BSTAR":0.00012312,"MEAN_MOTION_DOT":4.1e-6,"MEAN_MOTION_DDOT":0},{"OBJECT_NAME":"ORBCOMM FM108","OBJECT_ID":"2015-081J","EPOCH":"2026-04-26T05:40:10.806816","MEAN_MOTION":14.58790667,"ECCENTRICITY":0.0003308,"INCLINATION":47.0051,"RA_OF_ASC_NODE":67.8023,"ARG_OF_PERICENTER":312.3352,"MEAN_ANOMALY":47.7254,"EPHEMERIS_TYPE":0,"CLASSIFICATION_TYPE":"U","NORAD_CAT_ID":41187,"ELEMENT_SET_NO":999,"REV_AT_EPOCH":55249,"BSTAR":0.00017528,"MEAN_MOTION_DOT":6.56e-6,"MEAN_MOTION_DDOT":0},{"OBJECT_NAME":"ORBCOMM FM117","OBJECT_ID":"2015-081K","EPOCH":"2026-04-26T06:29:01.374720","MEAN_MOTION":14.58789057,"ECCENTRICITY":0.0003719,"INCLINATION":47.0019,"RA_OF_ASC_NODE":66.2919,"ARG_OF_PERICENTER":318.4563,"MEAN_ANOMALY":41.604,"EPHEMERIS_TYPE":0,"CLASSIFICATION_TYPE":"U","NORAD_CAT_ID":41188,"ELEMENT_SET_NO":999,"REV_AT_EPOCH":55254,"BSTAR":0.00014428,"MEAN_MOTION_DOT":5.1e-6,"MEAN_MOTION_DDOT":0},{"OBJECT_NAME":"ORBCOMM FM116","OBJECT_ID":"2015-081L","EPOCH":"2026-04-26T12:35:59.129088","MEAN_MOTION":14.58811344,"ECCENTRICITY":0.0002126,"INCLINATION":47.001,"RA_OF_ASC_NODE":154.8787,"ARG_OF_PERICENTER":220.4641,"MEAN_ANOMALY":139.6087,"EPHEMERIS_TYPE":0,"CLASSIFICATION_TYPE":"U","NORAD_CAT_ID":41189,"ELEMENT_SET_NO":999,"REV_AT_EPOCH":55139,"BSTAR":0.00014779,"MEAN_MOTION_DOT":5.27e-6,"MEAN_MOTION_DDOT":0}]
